INTELSAT 21 (IS-21)     
1 38749U 12045A   26171.38054375 -.00000289  00000+0  00000+0 0  9993
2 38749   0.0191  17.6891 0001460  83.4046 246.4937  1.00272238 50557
INTELSAT 23 (IS-23)     
1 38867U 12057A   26170.22916560 -.00000291  00000+0  00000+0 0  9995
2 38867   0.0099 325.5761 0000134  86.5042 244.8525  1.00267375 49974
FM-6                    
1 39360U 13058A   26171.36558618  .00000000  00000+0  00000+0 0  9995
2 39360   0.0369  53.5945 0001400 119.5580 110.7383  1.00271043 46108
INTELSAT 30 (IS-30)     
1 40271U 14062A   26171.15927381 -.00000154  00000+0  00000+0 0  9999
2 40271   0.0266  53.4926 0001017   9.4262 167.7293  1.00256820  6826
DIRECTV 14              
1 40333U 14078B   26171.35461541 -.00000130  00000+0  00000+0 0  9992
2 40333   0.0110  22.7054 0000249 291.5498 342.7307  1.00270509 42073
DIRECTV 15              
1 40663U 15026A   26171.01518352 -.00000108  00000+0  00000+0 0  9993
2 40663   0.0158  57.5517 0000218 316.6058 156.6548  1.00273256 40493
SKY MEXICO-1            
1 40664U 15026B   26171.37638374 -.00000239  00000+0  00000+0 0  9995
2 40664   0.0192  61.3246 0002160  44.3132 219.6461  1.00272203 40484
INTELSAT 34 (IS-34)     
1 40874U 15039A   26170.95331588 -.00000291  00000+0  00000+0 0  9990
2 40874   0.0091   6.4511 0001908 313.7582 235.6766  1.00300971 39669
INTELSAT 31 (IS-31)     
1 41581U 16035A   26170.94543848 -.00000156  00000+0  00000+0 0  9996
2 41581   0.0181 266.4038 0000929 350.7570 256.3060  1.00271353 36718
INTELSAT 36 (IS-36)     
1 41747U 16053A   26171.02061186 -.00000029  00000+0  00000+0 0  9999
2 41747   0.0114   8.6950 0002300 324.1758  11.2854  1.00268779 35980
INTELSAT 32E (IS-32E)   
1 41945U 17007B   26171.16959029 -.00000274  00000+0  00000+0 0  9998
2 41945   0.0183  13.4283 0000627 315.6456 317.1739  1.00270661 34251
INTELSAT 35E (IS-35E)   
1 42818U 17041A   26171.38513712 -.00000242  00000+0  00000+0 0  9990
2 42818   0.0180  23.6269 0002053  67.1464 281.9730  1.00272940 32842
INTELSAT 37E (IS-37E)   
1 42950U 17059A   26171.38843046 -.00000145  00000+0  00000+0 0  9994
2 42950   0.0188  18.2553 0002602  94.8556 277.3301  1.00271079 32094
AZERSPACE 2 (IS-38)     
1 43632U 18074A   26171.18709704  .00000132  00000+0  00000+0 0  9995
2 43632   0.0176  12.5072 0001411  75.0400 293.3134  1.00271425 28472
HORIZONS-3E             
1 43633U 18074B   26170.85516841 -.00000037  00000+0  00000+0 0  9992
2 43633   0.0016  83.0794 0000893 215.5434  86.3125  1.00267073 28363
AT&T T-16               
1 44333U 19034A   26171.35461541 -.00000120  00000+0  00000+0 0  9992
2 44333   0.0207  65.5499 0000650 225.8469   3.9721  1.00270065 25665
INTELSAT 39 (IS-39)     
1 44476U 19049B   26173.47169562  .00000035  00000+0  00000+0 0  9993
2 44476   0.0076 349.4901 0000935 354.6245 158.2934  1.00271710 25183
GALAXY 30 (G-30)        
1 46114U 20056C   26171.39489199  .00000032  00000+0  00000+0 0  9991
2 46114   0.0183  12.9122 0002284  75.3591 197.4940  1.00273107 21326
GALAXY 33 (G-33)        
1 54026U 22128A   26171.39489199  .00000075  00000+0  00000+0 0  9991
2 54026   0.0225  55.3005 0001741  30.1498 192.3075  1.00270656 13776
GALAXY 34 (G-34)        
1 54027U 22128B   26171.03517034  .00000053  00000+0  00000+0 0  9999
2 54027   0.0124  53.5288 0001758  53.8534  44.5334  1.00275411 13948
GALAXY 31 (G-31)        
1 54243U 22153A   26171.22547549  .00000008  00000+0  00000+0 0  9992
2 54243   0.0250  88.2921 0001170 352.9233 147.3806  1.00272126  7167
GALAXY 32 (G-32)        
1 54244U 22153B   26171.23129725 -.00000179  00000+0  00000+0 0  9996
2 54244   0.0157  36.0739 0002075   1.5238 223.1141  1.00271613 13172
GALAXY 35 (G-35)        
1 54741U 22170A   26171.37352373 -.00000167  00000+0  00000+0 0  9996
2 54741   0.0184  78.3754 0001886   7.7151 223.8506  1.00271920 12926
GALAXY 36 (G-36)        
1 54742U 22170B   26171.37439038 -.00000190  00000+0  00000+0 0  9997
2 54742   0.0027  66.1363 0002602  18.0076 230.2209  1.00272198 12809
GALAXY 37 (G-37)        
1 57493U 23112A   26171.39489199  .00000044  00000+0  00000+0 0  9992
2 57493   0.0142 358.8482 0002022  87.9609 196.9518  1.00271511 10570
